OBJECT C                
1 57582U 23117C   24313.16552362  .00021548  00000+0  99483-3 0  9999
2 57582  97.4713  23.5144 0010511 147.1793 213.0097 15.20182063 69026
